*******************************************************************************
JPL/HORIZONS               58 Concordia (A860 FA)          2023-Sep-04 11:04:08
Rec #:      58 (+COV) Soln.date: 2023-Aug-24_04:38:18   # obs: 6151 (1864-2023)
 
IAU76/J2000 helio. ecliptic osc. elements (au, days, deg., period=Julian yrs):
 
  EPOCH=  2456950.5 ! 2014-Oct-20.00 (TDB)         Residual RMS= .29816
   EC= .04426354515822754  QR= 2.581944038789627   TP= 2457254.0396872195
   OM= 161.1326626970635   W=  30.19679074252963   IN= 5.062189799328396
   A= 2.701523025212094    MA= 292.6237949072363   ADIST= 2.821102011634561
   PER= 4.44039            N= .221968355           ANGMOM= .028246192
   DAN= 2.59688            DDN= 2.80348            L= 191.2322057
   B= 2.5436616            MOID= 1.58250999        TP= 2015-Aug-19.5396872195
 
Asteroid physical parameters (km, seconds, rotational period in hours):
   GM= n.a.                RAD= 53.2585            ROTPER= 9.895
   H= 9.07                 G= .150                 B-V= .690
                           ALBEDO= .044            STYP= Ch

ASTEROID comments: 
1: soln ref.= JPL#141, OCC=0
2: source=ORB
*******************************************************************************


*******************************************************************************
Ephemeris / API_USER Mon Sep  4 11:04:08 2023 Pasadena, USA      / Horizons
*******************************************************************************
Target body name: 58 Concordia (A860 FA)          {source: JPL#141}
Center body name: Solar System Barycenter (0)     {source: DE441}
Center-site name: BODY CENTER
*******************************************************************************
Start time      : A.D. 2023-Aug-12 00:00:00.0000 TDB
Stop  time      : A.D. 2023-Aug-13 00:00:00.0000 TDB
Step-size       : 2880 minutes
*******************************************************************************
Center geodetic : 0.0, 0.0, 0.0                   {E-lon(deg),Lat(deg),Alt(km)}
Center cylindric: 0.0, 0.0, 0.0                   {E-lon(deg),Dxy(km),Dz(km)}
Center radii    : (undefined)
Small perturbers: Yes                             {source: SB441-N16}
Output units    : KM-S
Calendar mode   : Mixed Julian/Gregorian
Output type     : GEOMETRIC cartesian states
Output format   : 2 (position and velocity)
Reference frame : Ecliptic of J2000.0
*******************************************************************************
Initial IAU76/J2000 heliocentric ecliptic osculating elements (au, days, deg.):
  EPOCH=  2456950.5 ! 2014-Oct-20.00 (TDB)         Residual RMS= .29816        
   EC= .04426354515822754  QR= 2.581944038789627   TP= 2457254.0396872195      
   OM= 161.1326626970635   W=  30.19679074252963   IN= 5.062189799328396       
  Equivalent ICRF heliocentric cartesian coordinates (au, au/d):
   X=-1.299014148474035E+00  Y= 2.187402051482074E+00  Z= 7.773094636565248E-01
  VX=-9.045675921339345E-03 VY=-5.362449075794492E-03 VZ=-1.537124090291609E-03
Asteroid physical parameters (km, seconds, rotational period in hours):        
   GM= n.a.                RAD= 53.2585            ROTPER= 9.895               
   H= 9.07                 G= .150                 B-V= .690                   
                           ALBEDO= .044            STYP= Ch                    
*******************************************************************************
JDTDB
   X     Y     Z
   VX    VY    VZ
*******************************************************************************
$$SOE
2460168.500000000 = A.D. 2023-Aug-12 00:00:00.0000 TDB 
 X =-1.609705836992838E+08 Y = 3.658493222444428E+08 Z =-2.610757576816396E+07
 VX=-1.641341465501635E+01 VY=-7.979493360697131E+00 VZ= 1.141776555709636E+00
$$EOE
*******************************************************************************
 
TIME

  Barycentric Dynamical Time ("TDB" or T_eph) output was requested. This
continuous coordinate time is equivalent to the relativistic proper time
of a clock at rest in a reference frame co-moving with the solar system
barycenter but outside the system's gravity well. It is the independent
variable in the solar system relativistic equations of motion.

  TDB runs at a uniform rate of one SI second per second and is independent
of irregularities in Earth's rotation.
 
CALENDAR SYSTEM

  Mixed calendar mode was active such that calendar dates after AD 1582-Oct-15
(if any) are in the modern Gregorian system. Dates prior to 1582-Oct-5 (if any)
are in the Julian calendar system, which is automatically extended for dates
prior to its adoption on 45-Jan-1 BC.  The Julian calendar is useful for
matching historical dates. The Gregorian calendar more accurately corresponds
to the Earth's orbital motion and seasons. A "Gregorian-only" calendar mode is
available if such physical events are the primary interest.

REFERENCE FRAME AND COORDINATES

  Ecliptic at the standard reference epoch

    Reference epoch: J2000.0
    X-Y plane: adopted Earth orbital plane at the reference epoch
               Note: IAU76 obliquity of 84381.448 arcseconds wrt ICRF X-Y plane
    X-axis   : ICRF
    Z-axis   : perpendicular to the X-Y plane in the directional (+ or -) sense
               of Earth's north pole at the reference epoch.

  Symbol meaning:

    JDTDB    Julian Day Number, Barycentric Dynamical Time
      X      X-component of position vector (km)
      Y      Y-component of position vector (km)
      Z      Z-component of position vector (km)
      VX     X-component of velocity vector (km/sec)                           
      VY     Y-component of velocity vector (km/sec)                           
      VZ     Z-component of velocity vector (km/sec)                           

ABERRATIONS AND CORRECTIONS

 Geometric state vectors have NO corrections or aberrations applied.

Computations by ...

    Solar System Dynamics Group, Horizons On-Line Ephemeris System
    4800 Oak Grove Drive, Jet Propulsion Laboratory
    Pasadena, CA  91109   USA

    General site: https://ssd.jpl.nasa.gov/
    Mailing list: https://ssd.jpl.nasa.gov/email_list.html
    System news : https://ssd.jpl.nasa.gov/horizons/news.html
    User Guide  : https://ssd.jpl.nasa.gov/horizons/manual.html
    Connect     : browser        https://ssd.jpl.nasa.gov/horizons/app.html#/x
                  API            https://ssd-api.jpl.nasa.gov/doc/horizons.html
                  command-line   telnet ssd.jpl.nasa.gov 6775
                  e-mail/batch   https://ssd.jpl.nasa.gov/ftp/ssd/hrzn_batch.txt
                  scripts        https://ssd.jpl.nasa.gov/ftp/ssd/SCRIPTS
    Author      : Jon.D.Giorgini@jpl.nasa.gov
*******************************************************************************
